OBJECT_NAME,OBJECT_ID,EPOCH,MEAN_MOTION,ECCENTRICITY,INCLINATION,RA_OF_ASC_NODE,ARG_OF_PERICENTER,MEAN_ANOMALY,EPHEMERIS_TYPE,CLASSIFICATION_TYPE,NORAD_CAT_ID,ELEMENT_SET_NO,REV_AT_EPOCH,BSTAR,MEAN_MOTION_DOT,MEAN_MOTION_DDOT
SAUDISAT 2,2004-025F,2026-06-15T14:04:32.323008,14.56683129,.00236544,98.5507,166.5270,303.4138,56.4796,0,U,28371,999,16551,.58600714E-4,.213E-5,0
COSMOS 2407,2004-028A,2026-06-15T11:44:43.819584,13.76334578,.00378031,82.9608,76.0915,256.8783,276.9669,0,U,28380,999,9964,.38408128E-4,.53E-6,0
COSMOS 2414,2005-002A,2026-06-15T14:10:03.679968,13.87926449,.00395855,82.9500,44.8547,335.9312,24.0000,0,U,28521,999,8359,.44082953E-4,.68E-6,0
INMARSAT 4-F1,2005-009A,2026-06-14T19:05:11.796288,1.00271327,.0002458,5.1647,42.7552,42.6985,282.0547,0,U,28628,999,7764,0,.34E-6,0
SJ-7,2005-024A,2026-06-15T13:52:22.636128,15.21522541,.00165035,97.7278,196.6382,43.2559,316.9968,0,U,28737,999,14778,.31365953E-3,.7014E-4,0
CUBESAT XI-V,2005-043F,2026-06-15T08:44:27.885696,14.72627055,.00135225,98.2983,321.9478,206.7180,153.3331,0,U,28895,999,10148,.19691438E-3,.1202E-4,0
HINODE (SOLAR-B),2006-041A,2026-06-15T13:12:17.848512,14.68621093,.00160578,98.0549,182.7269,295.4065,64.5478,0,U,29479,999,5463,.10771185E-3,.578E-5,0
SHIJIAN-6 02B (SJ-6 02B),2006-046B,2026-06-15T14:43:27.325344,15.01374971,.00152975,97.7158,195.6818,64.8536,295.4273,0,U,29506,999,7050,.1201692E-3,.1491E-4,0
DMSP 5D-3 F17 (USA 191),2006-050A,2026-06-15T13:02:24.256320,14.14992976,.00112082,98.7378,173.1471,63.7008,296.5316,0,U,29522,999,1219,.38330803E-4,.31E-6,0
LAPAN-TUBSAT,2007-001A,2026-06-15T13:42:05.474016,14.85951927,.00117047,98.1335,165.7582,184.4344,175.6769,0,U,29709,999,5091,.12453231E-3,.103E-4,0
HAIYANG-1B,2007-010A,2026-06-15T12:52:45.863616,14.31026508,.00129186,98.3494,148.4458,201.3718,158.6928,0,U,31113,999,40,.40480451E-4,.65E-6,0
COSMO-SKYMED 2,2007-059A,2026-06-15T14:35:57.460416,14.82153933,.00013732,97.8885,350.2291,86.5213,273.6157,0,U,32376,999,177,.49909143E-4,.345E-5,0
CARTOSAT-2A,2008-021A,2026-06-15T15:01:26.906304,14.79237867,.00131115,97.7637,215.3878,113.3058,246.9535,0,U,32783,999,97857,.14577957E-3,.1034E-4,0
CUTE-1.7+APD II (CO-65),2008-021C,2026-06-15T14:11:45.679488,15.09439257,.00099753,97.8271,147.9768,44.1299,316.0723,0,U,32785,999,98495,.24444619E-3,.3848E-4,0
SEEDS II (CO-66),2008-021J,2026-06-15T13:38:58.094880,15.32704207,.00012974,97.7511,164.3889,9.9046,350.2220,0,U,32791,999,98704,.48345218E-3,.15199E-3,0
YUBILEINY (RS30),2008-025A,2026-06-15T13:39:54.387072,12.43179648,.00189192,82.5039,356.4473,317.5762,42.3854,0,U,32953,999,81949,.60035368E-3,.93E-6,0
FENGYUN 3A,2008-026A,2026-06-15T13:36:43.901856,14.19570760,.00095345,98.6883,107.4306,127.8836,232.3204,0,U,32958,999,93517,.4251299E-4,.46E-6,0
HUANJING 1A (HJ-1A),2008-041A,2026-06-15T14:46:18.075072,14.83982449,.001983,97.6675,152.5144,139.4914,220.7781,0,U,33320,999,95817,.74282195E-4,.569E-5,0
HUANJING 1B (HJ-1B),2008-041B,2026-06-15T15:37:52.834080,14.83313137,.00358548,97.6508,155.7249,186.0943,173.9841,0,U,33321,999,95818,.7657569E-4,.582E-5,0
SHIJIAN-6 03A (SJ-6 03A),2008-053A,2026-06-15T14:20:51.852768,15.17154182,.00118793,97.8409,199.8627,26.2762,333.9070,0,U,33408,999,96272,.22619158E-3,.4423E-4,0
SHIJIAN-6 03B (SJ-6 03B),2008-053B,2026-06-15T15:16:29.043264,15.04305593,.00210525,97.8575,186.5023,50.0407,310.2663,0,U,33409,999,96251,.79459172E-4,.1046E-4,0
